[{"OBJECT_NAME":"STARLINK-5703","OBJECT_ID":"2023-020AA","EPOCH":"2026-03-09T22:00:01.999584","MEAN_MOTION":15.13369533,"ECCENTRICITY":8.937e-5,"INCLINATION":43.0001,"RA_OF_ASC_NODE":2.8646,"ARG_OF_PERICENTER":241.2923,"MEAN_ANOMALY":341.0522,"EPHEMERIS_TYPE":0,"CLASSIFICATION_TYPE":"U","NORAD_CAT_ID":55593,"ELEMENT_SET_NO":999,"REV_AT_EPOCH":567,"BSTAR":0.067030028,"MEAN_MOTION_DOT":0.01321508,"MEAN_MOTION_DDOT":0},{"OBJECT_NAME":"MONITOR-3 (RS58S)","OBJECT_ID":"2023-091Q","EPOCH":"2026-03-09T23:24:02.583360","MEAN_MOTION":15.25747617,"ECCENTRICITY":0.0013676,"INCLINATION":97.5199,"RA_OF_ASC_NODE":131.7909,"ARG_OF_PERICENTER":91.0881,"MEAN_ANOMALY":269.1924,"EPHEMERIS_TYPE":0,"CLASSIFICATION_TYPE":"U","NORAD_CAT_ID":57180,"ELEMENT_SET_NO":999,"REV_AT_EPOCH":14915,"BSTAR":0.00054974842,"MEAN_MOTION_DOT":0.00014004,"MEAN_MOTION_DDOT":0}]
